STARLINK-6220           
1 56482U 23064AL  26068.58055367 -.00000499  00000+0 -34061-4 0  9992
2 56482  69.9998 124.7071 0003282 269.8057  90.2726 14.98330554155729
TOMORROW-S7             
1 63631U 25081B   26068.64931870  .00002135  00000+0  19093-3 0  9990
2 63631  45.3909 132.5570 0000463 121.9907 238.1016 14.99242141 48231
